CCSDS_OMM_VERS = 2.0
CREATION_DATE  = 
ORIGINATOR     = 

OBJECT_NAME    = SL-14 R/B
OBJECT_ID      = 1991-042B
CENTER_NAME    = EARTH
REF_FRAME      = TEME
TIME_SYSTEM    = UTC
MEAN_ELEMENT_THEORY = SGP/SGP4

EPOCH          = 2026-03-05T21:48:37.333152
MEAN_MOTION    = 14.81824472
ECCENTRICITY   = .00156388
INCLINATION    = 82.4915
RA_OF_ASC_NODE = 223.7278
ARG_OF_PERICENTER = 252.0863
MEAN_ANOMALY   = 107.8646

EPHEMERIS_TYPE = 0
CLASSIFICATION_TYPE = U
NORAD_CAT_ID   = 21423
ELEMENT_SET_NO = 999
REV_AT_EPOCH   = 85251
BSTAR          = .71839714E-4
MEAN_MOTION_DOT = .591E-5
MEAN_MOTION_DDOT = 0

CCSDS_OMM_VERS = 2.0
CREATION_DATE  = 
ORIGINATOR     = 

OBJECT_NAME    = ERS-1
OBJECT_ID      = 1991-050A
CENTER_NAME    = EARTH
REF_FRAME      = TEME
TIME_SYSTEM    = UTC
MEAN_ELEMENT_THEORY = SGP/SGP4

EPOCH          = 2026-03-05T22:38:58.512192
MEAN_MOTION    = 14.39445550
ECCENTRICITY   = .00314256
INCLINATION    = 98.7885
RA_OF_ASC_NODE = 83.0842
ARG_OF_PERICENTER = 211.7332
MEAN_ANOMALY   = 148.1962

EPHEMERIS_TYPE = 0
CLASSIFICATION_TYPE = U
NORAD_CAT_ID   = 21574
ELEMENT_SET_NO = 999
REV_AT_EPOCH   = 81519
BSTAR          = .12866112E-3
MEAN_MOTION_DOT = .356E-5
MEAN_MOTION_DDOT = 0

CCSDS_OMM_VERS = 2.0
CREATION_DATE  = 
ORIGINATOR     = 

OBJECT_NAME    = ARIANE 40 R/B
OBJECT_ID      = 1991-050F
CENTER_NAME    = EARTH
REF_FRAME      = TEME
TIME_SYSTEM    = UTC
MEAN_ELEMENT_THEORY = SGP/SGP4

EPOCH          = 2026-03-05T17:25:44.812704
MEAN_MOTION    = 14.42890414
ECCENTRICITY   = .00043532
INCLINATION    = 98.2020
RA_OF_ASC_NODE = 117.1112
ARG_OF_PERICENTER = 89.9282
MEAN_ANOMALY   = 270.2407

EPHEMERIS_TYPE = 0
CLASSIFICATION_TYPE = U
NORAD_CAT_ID   = 21610
ELEMENT_SET_NO = 999
REV_AT_EPOCH   = 81842
BSTAR          = .14102686E-3
MEAN_MOTION_DOT = .429E-5
MEAN_MOTION_DDOT = 0

CCSDS_OMM_VERS = 2.0
CREATION_DATE  = 
ORIGINATOR     = 

OBJECT_NAME    = INTERCOSMOS 25
OBJECT_ID      = 1991-086A
CENTER_NAME    = EARTH
REF_FRAME      = TEME
TIME_SYSTEM    = UTC
MEAN_ELEMENT_THEORY = SGP/SGP4

EPOCH          = 2026-03-05T16:40:56.389440
MEAN_MOTION    = 12.11987048
ECCENTRICITY   = .14870069
INCLINATION    = 82.6058
RA_OF_ASC_NODE = 312.4229
ARG_OF_PERICENTER = 125.5367
MEAN_ANOMALY   = 249.3693

EPHEMERIS_TYPE = 0
CLASSIFICATION_TYPE = U
NORAD_CAT_ID   = 21819
ELEMENT_SET_NO = 999
REV_AT_EPOCH   = 49620
BSTAR          = .3154553E-3
MEAN_MOTION_DOT = .1644E-4
MEAN_MOTION_DDOT = 0

CCSDS_OMM_VERS = 2.0
CREATION_DATE  = 
ORIGINATOR     = 

OBJECT_NAME    = SL-8 R/B
OBJECT_ID      = 1992-008B
CENTER_NAME    = EARTH
REF_FRAME      = TEME
TIME_SYSTEM    = UTC
MEAN_ELEMENT_THEORY = SGP/SGP4

EPOCH          = 2026-03-05T22:48:46.786464
MEAN_MOTION    = 13.75969754
ECCENTRICITY   = .00353599
INCLINATION    = 82.9227
RA_OF_ASC_NODE = 270.5606
ARG_OF_PERICENTER = 143.5165
MEAN_ANOMALY   = 327.2095

EPHEMERIS_TYPE = 0
CLASSIFICATION_TYPE = U
NORAD_CAT_ID   = 21876
ELEMENT_SET_NO = 999
REV_AT_EPOCH   = 70890
BSTAR          = -.10613711E-4
MEAN_MOTION_DOT = .5E-7
MEAN_MOTION_DDOT = 0

CCSDS_OMM_VERS = 2.0
CREATION_DATE  = 
ORIGINATOR     = 

OBJECT_NAME    = SL-8 R/B
OBJECT_ID      = 1992-020B
CENTER_NAME    = EARTH
REF_FRAME      = TEME
TIME_SYSTEM    = UTC
MEAN_ELEMENT_THEORY = SGP/SGP4

EPOCH          = 2026-03-05T16:52:11.342784
MEAN_MOTION    = 13.75548996
ECCENTRICITY   = .00278105
INCLINATION    = 82.9341
RA_OF_ASC_NODE = 156.7210
ARG_OF_PERICENTER = 310.4040
MEAN_ANOMALY   = 166.8656

EPHEMERIS_TYPE = 0
CLASSIFICATION_TYPE = U
NORAD_CAT_ID   = 21938
ELEMENT_SET_NO = 999
REV_AT_EPOCH   = 70058
BSTAR          = .96012269E-4
MEAN_MOTION_DOT = .108E-5
MEAN_MOTION_DDOT = 0

CCSDS_OMM_VERS = 2.0
CREATION_DATE  = 
ORIGINATOR     = 

OBJECT_NAME    = USA 81
OBJECT_ID      = 1992-023A
CENTER_NAME    = EARTH
REF_FRAME      = TEME
TIME_SYSTEM    = UTC
MEAN_ELEMENT_THEORY = SGP/SGP4

EPOCH          = 2026-03-05T16:14:45.355776
MEAN_MOTION    = 14.32366484
ECCENTRICITY   = .00025713
INCLINATION    = 85.0092
RA_OF_ASC_NODE = 133.7560
ARG_OF_PERICENTER = 80.6897
MEAN_ANOMALY   = 279.4586

EPHEMERIS_TYPE = 0
CLASSIFICATION_TYPE = U
NORAD_CAT_ID   = 21949
ELEMENT_SET_NO = 999
REV_AT_EPOCH   = 9421
BSTAR          = .82214401E-4
MEAN_MOTION_DOT = .242E-5
MEAN_MOTION_DDOT = 0

CCSDS_OMM_VERS = 2.0
CREATION_DATE  = 
ORIGINATOR     = 

OBJECT_NAME    = COSMOS 2219
OBJECT_ID      = 1992-076A
CENTER_NAME    = EARTH
REF_FRAME      = TEME
TIME_SYSTEM    = UTC
MEAN_ELEMENT_THEORY = SGP/SGP4

EPOCH          = 2026-03-05T23:37:06.052512
MEAN_MOTION    = 14.14090887
ECCENTRICITY   = .00192212
INCLINATION    = 71.0625
RA_OF_ASC_NODE = 25.8131
ARG_OF_PERICENTER = 212.0008
MEAN_ANOMALY   = 147.9949

EPHEMERIS_TYPE = 0
CLASSIFICATION_TYPE = U
NORAD_CAT_ID   = 22219
ELEMENT_SET_NO = 999
REV_AT_EPOCH   = 71785
BSTAR          = .15330408E-3
MEAN_MOTION_DOT = .245E-5
MEAN_MOTION_DDOT = 0

CCSDS_OMM_VERS = 2.0
CREATION_DATE  = 
ORIGINATOR     = 

OBJECT_NAME    = SL-16 R/B
OBJECT_ID      = 1992-076B
CENTER_NAME    = EARTH
REF_FRAME      = TEME
TIME_SYSTEM    = UTC
MEAN_ELEMENT_THEORY = SGP/SGP4

EPOCH          = 2026-03-05T20:00:12.753216
MEAN_MOTION    = 14.16860314
ECCENTRICITY   = .00105246
INCLINATION    = 71.0002
RA_OF_ASC_NODE = 196.4956
ARG_OF_PERICENTER = 103.4998
MEAN_ANOMALY   = 59.0645

EPHEMERIS_TYPE = 0
CLASSIFICATION_TYPE = U
NORAD_CAT_ID   = 22220
ELEMENT_SET_NO = 999
REV_AT_EPOCH   = 72128
BSTAR          = .1474668E-5
MEAN_MOTION_DOT = -.45E-6
MEAN_MOTION_DDOT = 0

CCSDS_OMM_VERS = 2.0
CREATION_DATE  = 
ORIGINATOR     = 

OBJECT_NAME    = COSMOS 2221
OBJECT_ID      = 1992-080A
CENTER_NAME    = EARTH
REF_FRAME      = TEME
TIME_SYSTEM    = UTC
MEAN_ELEMENT_THEORY = SGP/SGP4

EPOCH          = 2026-03-05T16:35:50.157600
MEAN_MOTION    = 14.96183542
ECCENTRICITY   = .00136766
INCLINATION    = 82.5012
RA_OF_ASC_NODE = 282.9117
ARG_OF_PERICENTER = 201.0010
MEAN_ANOMALY   = 159.0652

EPHEMERIS_TYPE = 0
CLASSIFICATION_TYPE = U
NORAD_CAT_ID   = 22236
ELEMENT_SET_NO = 999
REV_AT_EPOCH   = 78019
BSTAR          = .23392993E-3
MEAN_MOTION_DOT = .2665E-4
MEAN_MOTION_DDOT = 0

CCSDS_OMM_VERS = 2.0
CREATION_DATE  = 
ORIGINATOR     = 

OBJECT_NAME    = SL-16 R/B
OBJECT_ID      = 1992-093B
CENTER_NAME    = EARTH
REF_FRAME      = TEME
TIME_SYSTEM    = UTC
MEAN_ELEMENT_THEORY = SGP/SGP4

EPOCH          = 2026-03-05T22:09:34.146432
MEAN_MOTION    = 14.15449013
ECCENTRICITY   = .00063544
INCLINATION    = 71.0239
RA_OF_ASC_NODE = 12.1715
ARG_OF_PERICENTER = 297.6678
MEAN_ANOMALY   = 62.3799

EPHEMERIS_TYPE = 0
CLASSIFICATION_TYPE = U
NORAD_CAT_ID   = 22285
ELEMENT_SET_NO = 999
REV_AT_EPOCH   = 71262
BSTAR          = -.75538443E-4
MEAN_MOTION_DOT = -.195E-5
MEAN_MOTION_DDOT = 0

CCSDS_OMM_VERS = 2.0
CREATION_DATE  = 
ORIGINATOR     = 

OBJECT_NAME    = COSMOS 2228
OBJECT_ID      = 1992-094A
CENTER_NAME    = EARTH
REF_FRAME      = TEME
TIME_SYSTEM    = UTC
MEAN_ELEMENT_THEORY = SGP/SGP4

EPOCH          = 2026-03-05T23:28:10.433856
MEAN_MOTION    = 14.97167409
ECCENTRICITY   = .00170171
INCLINATION    = 82.5149
RA_OF_ASC_NODE = 240.8650
ARG_OF_PERICENTER = 317.8938
MEAN_ANOMALY   = 42.0976

EPHEMERIS_TYPE = 0
CLASSIFICATION_TYPE = U
NORAD_CAT_ID   = 22286
ELEMENT_SET_NO = 999
REV_AT_EPOCH   = 77550
BSTAR          = .23346068E-3
MEAN_MOTION_DOT = .273E-4
MEAN_MOTION_DDOT = 0

